[{"OBJECT_NAME":"STARLINK-30204","OBJECT_ID":"2023-107R","EPOCH":"2026-03-09T03:23:43.752768","MEAN_MOTION":15.26731738,"ECCENTRICITY":0.00018257,"INCLINATION":43.0031,"RA_OF_ASC_NODE":339.1618,"ARG_OF_PERICENTER":10.6068,"MEAN_ANOMALY":349.4822,"EPHEMERIS_TYPE":0,"CLASSIFICATION_TYPE":"U","NORAD_CAT_ID":57472,"ELEMENT_SET_NO":999,"REV_AT_EPOCH":14506,"BSTAR":6.1620178e-5,"MEAN_MOTION_DOT":1.393e-5,"MEAN_MOTION_DDOT":0},{"OBJECT_NAME":"FENGYUN 1C DEB","OBJECT_ID":"1999-025FAR","EPOCH":"2026-03-08T03:43:29.800128","MEAN_MOTION":14.889233,"ECCENTRICITY":0.01703105,"INCLINATION":98.6941,"RA_OF_ASC_NODE":137.2071,"ARG_OF_PERICENTER":197.5148,"MEAN_ANOMALY":162.0149,"EPHEMERIS_TYPE":0,"CLASSIFICATION_TYPE":"U","NORAD_CAT_ID":47015,"ELEMENT_SET_NO":999,"REV_AT_EPOCH":65652,"BSTAR":0.0011723418,"MEAN_MOTION_DOT":0.00014397,"MEAN_MOTION_DDOT":0}]
